{
"type": "FeatureCollection",
"name": "accident",
"crs": { "type": "name", "properties": { "name": "urn:ogc:def:crs:OGC:1.3:CRS84" } },
"features": [
{ "type": "Feature", "properties": { "No": 1, "Area": "หน้าทางเข้ามหาวิทยาลัย เกษตรศาสตร์บางเขน ถึง BTS ม.เกษตรฯ", "District": "จตุจักร", "Zone": "กรุงเทพเหนือ", "Latitude": 13.841778, "Longitude": 100.576739, "Source": "iTic+ThaiRSC", "Response": "กผ.1+กค.1", "Gridelines_problem": "1) ประสาน.ท้องที่เพื่อกวดขันวินัยจราจร 2) ติดตั้งหลักล้มลุก บริเวณเชิงลาดสะพานข้ามแยกเกษตร 3) ติดตั้งป้ายหัวเกาะพลังงานแสงอาทิตย์ ริเวณเชิงลาดสะพานข้ามแยกเกษตร 4) ติดตั้ง Cushion Tank บริเวณเชิงลาดสะพานข้ามแยกเกษตร", "ThaiRSC_2566": 12, "iTIC_2566": 4, "Remark": null }, "geometry": { "type": "Point", "coordinates": [ 100.576739, 13.841778 ] } },
{ "type": "Feature", "properties": { "No": 2, "Area": "แยกวัดพุทธสยาม (สีกัน)", "District": "ดอนเมือง", "Zone": "กรุงเทพเหนือ", "Latitude": 13.933031, "Longitude": 100.56721, "Source": "iTic+ThaiRSC", "Response": "กผ.1+กค.1", "Gridelines_problem": "1) ประสาน สน.ท้องที่เพื่อกวดขันวินัยจราจร 2) จัดทำเส้น เครื่องหมายจราจร ละทางข้าม ให้ชัดเจน 3) ติดตั้งป้ายเตือนหัวเกาะ หรือติดตั้งหลักล้มลุกบริเวณหัวเกาะ เพื่อให้ผู้ขับขี่มองเห็นและระมัดระวัง 5) ติดตั้งเป้าสะท้อนแสง ริเวณขอบเกาะกลางถนนสรงประภาก่อนถึงทางแยก", "ThaiRSC_2566": 13, "iTIC_2566": 6, "Remark": null }, "geometry": { "type": "Point", "coordinates": [ 100.56721, 13.933031 ] } },
{ "type": "Feature", "properties": { "No": 3, "Area": "ซอยรามอินทรา 39", "District": "บางเขน", "Zone": "กรุงเทพเหนือ", "Latitude": 13.857717, "Longitude": 100.627473, "Source": "iRAP", "Response": "กผ.1+กค.1", "Gridelines_problem": "1) ประสาน สน.ท้องที่เพื่อกวดขันวินัยจราจร ผู้ขับขี่ที่ฝ่าฝืนในพื้นที่ห้ามจอด 2) ติดตั้งป้ายเตือนทางเข้า-ออก 3) ติดตั้งป้ายเตือน \"ลดความเร็ว ข้างหน้าทางเกิดอุบัติเหตุบ่อยครั้ง\" เพื่อกระตุ้นเตือน ผู้ขับขี่บริเวณถนนรามอินทราก่อนถึงซอยรามอินทรา 39 4) ปรับปรุงเส้นจราจรและเครื่องหมายจราจรบนพื้นทาง ภายในซอยรามอินทรา 39 ให้ชัดเจน", "ThaiRSC_2566": 14, "iTIC_2566": 3, "Remark": "1 ดาว " }, "geometry": { "type": "Point", "coordinates": [ 100.627473, 13.857717 ] } },
{ "type": "Feature", "properties": { "No": 4, "Area": "แยกเตาปูน", "District": "บางซื่อ", "Zone": "กรุงเทพเหนือ", "Latitude": 13.806388, "Longitude": 100.530895, "Source": "iRAP", "Response": "กผ.1+กค.1", "Gridelines_problem": "1) ประสาน สน.ท้องที่เพื่อกวดขันวินัยจราจร ผู้ขับขี่ที่ฝ่าฝืนสัญญาณไฟจราจร 2) ติดตั้งป้ายหัวเกาะจุดพักคนเดินข้ามบริเวณเกาะกลาง 3) ปรับปรุงป้าย เลี้ยวซ้ายรอสัญญาณไฟ ให้ผู้ขับขี่มองเห็นได้ชัดเจน 4) ปรับปรุงเส้นจราจรและเครื่องหมายจราจรบนพื้นทางให ชัดเจน", "ThaiRSC_2566": 21, "iTIC_2566": 2, "Remark": "1 ดาว" }, "geometry": { "type": "Point", "coordinates": [ 100.530895, 13.806388 ] } },
{ "type": "Feature", "properties": { "No": 5, "Area": "สะพานข้ามแยกพงษ์เพชร", "District": "หลักสี่", "Zone": "กรุงเทพเหนือ", "Latitude": 13.856115, "Longitude": 100.545778, "Source": "iTic+ThaiRSC", "Response": "กผ.1+กค.1", "Gridelines_problem": "1) ติดตั้งป้ายเตือนทางโค้งแบบไฟกะพริบเพื่อกระตุ้นเตือนผู้ขับขี่ 2) ติดตั้งเทปเส้นจราจร เพื่อเพิ่มทัศนวิสัยในการมองเห็นช่วงกลางคืนและในเวลาฝนตก 3) ติดตั้งเป้าสะท้อนแสง", "ThaiRSC_2566": 6, "iTIC_2566": 18, "Remark": "1 ดาว" }, "geometry": { "type": "Point", "coordinates": [ 100.545778, 13.856115 ] } },
{ "type": "Feature", "properties": { "No": 6, "Area": "โค้งก่อนสะพานข้าม คลองเสือน้อย ถนนสุคนธสวัสดิ์", "District": "ลาดพร้าว", "Zone": "กรุงเทพเหนือ", "Latitude": 13.823644, "Longitude": 100.608785, "Source": "iRAP", "Response": "กผ.1+กค.1", "Gridelines_problem": "1) ติดตั้งราวป้องกันอันตราย (Guard Rail)บริเวณทางโค้ง 2) พิจารณาติดตั้งเป้าสะท้อนแสงแบบไฟกระพริบ บริเวณติดตั้งราวป้องกันอันตราย (Guard Rail) หรือติดตั้งเทปจราจรสะท้อนแสง เพื่อเพิ่มทัศนวิสัยในการมองเห็นช่วงเวลากลางคืนและในเวลาฝนตก 3) ตรวจสอบป้ายเตือนทางโค้งแบบไฟกระพริบให้อยู่ในสภาพพร้อมใช้งาน", "ThaiRSC_2566": 277, "iTIC_2566": 0, "Remark": "1 ดาว" }, "geometry": { "type": "Point", "coordinates": [ 100.608785, 13.823644 ] } },
{ "type": "Feature", "properties": { "No": 7, "Area": "แยกถนนเฉลิมพงษ์ ถนนสายไหม", "District": "สายไหม", "Zone": "กรุงเทพเหนือ", "Latitude": 13.921486, "Longitude": 100.683786, "Source": "iRAP", "Response": "กผ.1+กค.1", "Gridelines_problem": "1) ประสาน สน.ท้องที่เพื่อกวดขันวินัยจราจร ผู้ขับขี่ที่ฝ่าฝืน ญญาณไฟจราจร 2) ปรับปรุงเส้นจราจรและเครื่องหมายจราจรบนพื้นทางให้ชัดเจน", "ThaiRSC_2566": 35, "iTIC_2566": 3, "Remark": null }, "geometry": { "type": "Point", "coordinates": [ 100.683786, 13.921486 ] } },
{ "type": "Feature", "properties": { "No": 8, "Area": "สามแยกตรงข้ามศูนย์ก่อสร้างและบูรณะทาง 2 ถนนมิตรไมตรี", "District": "ดินแดง", "Zone": "กรุงเทพกลาง", "Latitude": 13.772583, "Longitude": 100.553908, "Source": "iRAP", "Response": "กผ.1+กค.1", "Gridelines_problem": "1) ประสาน สน.ท้องที่เพื่อกวดขันวินัย ราจร จุดห้ามจอด เพื่อให้ผู้ขับขี่มองเห็นบริเวณทางแยกได้สะดวก 2) ติดตั้งป้ายเตือน \"ลดความเร็ว ข้างหน้าเกิดอุบัติเหตุบ่อยครั้ง\" เพื่อกระตุ้นเตือนผู้ขับขี่ บริเวณถนนมิตรไมตรีก่อนถึงทางแยก 3) ปรับปรุงเส้นจราจรและเครื่องหมายจราจรบนพื้นทางให้ชัดเจน", "ThaiRSC_2566": 6, "iTIC_2566": 2, "Remark": "2 ดาว" }, "geometry": { "type": "Point", "coordinates": [ 100.553908, 13.772583 ] } },
{ "type": "Feature", "properties": { "No": 9, "Area": "แยกพิชัย", "District": "ดุสิต", "Zone": "กรุงเทพกลาง", "Latitude": 13.781921, "Longitude": 100.518025, "Source": "iTic+ThaiRSC", "Response": "กผ.1+กค.1", "Gridelines_problem": "1) ประสาน สน.ท้องที่เพื่อกวดขันวินัยจราจร ผู้ขับขี่ที่ฝ่าฝืนสัญญาณไฟจราจร", "ThaiRSC_2566": 22, "iTIC_2566": 1, "Remark": "1ดาว" }, "geometry": { "type": "Point", "coordinates": [ 100.518025, 13.781921 ] } },
{ "type": "Feature", "properties": { "No": 10, "Area": "โรงเรียนศรีอยุธยา ถนนศรีอยุธยา", "District": "ราชเทวี", "Zone": "กรุงเทพกลาง", "Latitude": 13.757175, "Longitude": 100.537861, "Source": "iRAP", "Response": "กผ.1+กค.1", "Gridelines_problem": "1) ติดตั้งหลักล้มลุก บริเวณเชิงลาดสะพานข้ามแยกพญาไท และะพานข้ามแยกมักกะสัน 2) ตรวจสอบ ปรับปรุง ซ่อมแซม Crash Cushion ให้อยู่ในสภาพพร้อมใช้งาน 3) ปรับปรุงเส้นจราจรและเครื่องหมายจราจรบนพื้นทางและขอบทางให้ชัดเจน", "ThaiRSC_2566": 22, "iTIC_2566": 2, "Remark": null }, "geometry": { "type": "Point", "coordinates": [ 100.537861, 13.757175 ] } },
{ "type": "Feature", "properties": { "No": 11, "Area": "แยกผังเมือง", "District": "ห้วยขวาง", "Zone": "กรุงเทพกลาง", "Latitude": 13.755815, "Longitude": 100.573216, "Source": "iRAP", "Response": "กผ.1+กค.1", "Gridelines_problem": "1) ประสาน สน.ท้องที่เพื่อกวดขันวินัยจราจร ผู้ขับขี่ที่ฝ่าฝืนสัญญาณไฟจราจร 2) ปรับปรุงเส้นจราจรและเครื่องหมายจราจรบนพื้นทางให้ชัดเจน 3) พิจารณาทำเส้นนำทาง (Guide Line) เพื่อให้ผู้ขับขี่เลี้ยวเข้าช่องจราจรที่ถูกต้อง ได้สะดวก", "ThaiRSC_2566": 41, "iTIC_2566": 5, "Remark": null }, "geometry": { "type": "Point", "coordinates": [ 100.573216, 13.755815 ] } },
{ "type": "Feature", "properties": { "No": 12, "Area": "แยกพหลโยธิน ถนนสุทธิสารวินิจฉัย", "District": "พญาไท", "Zone": "กรุงเทพกลาง", "Latitude": 13.789344, "Longitude": 100.548216, "Source": "iRAP", "Response": "กผ.1+กค.1", "Gridelines_problem": "1) ประสาน สน.ท้องที่เพื่อกวดขันวินัยจราจร 2) ติดตั้งป้ายเตือนทางแยก บริเวณถนนพหลโยธิน 3) ปรับปรุงเครื่องหมายจราจรบนพื้นทางให้ชัดเจน", "ThaiRSC_2566": 48, "iTIC_2566": 3, "Remark": null }, "geometry": { "type": "Point", "coordinates": [ 100.548216, 13.789344 ] } },
{ "type": "Feature", "properties": { "No": 13, "Area": "ช่วงแยกโรงเรียนเทพลีลา ถึง ปากซอยรามคำแหง 39 แยก 7", "District": "วังทองหลาง", "Zone": "กรุงเทพตะวันออก", "Latitude": 13.759204, "Longitude": 100.613358, "Source": "iTic+ThaiRSC", "Response": "กผ.1+กค.1", "Gridelines_problem": "1) ประสาน .ท้องที่เพื่อกวดขันวินัยจราจร 2) ติดเป้าสะท้อนแสงเพิ่มการมองเห็นบนสะพานข้ามคลองแสนแสบ 3) ติดตั้งป้ายเตือนหัวเกาะเชิงลาดสะพานและติดตั้งหลักล้มลุก 4) รื้อถอนหมุดสะท้อนแสงที่ชำรุดเพื่อป้องกันอุบัติเหตุ และติดเทปจราจรทดแทน เพิ่มการมองเห็นเส้นแบ่งทิศทางการจราจร 5) ตรวจสอบความสมบูรณ์ของเส้นและเครื่องหมายจราจรบนสะพานและถนน และทาสีขาวแดงบริเวณปากซอยให้ชัดเจน 6) ประสานสำนักการโยธาตรวจสอบไฟฟ้าส่องสว่างให้ใช้งานได้อยู่เสมอ", "ThaiRSC_2566": 39, "iTIC_2566": 1, "Remark": "1 ดาว" }, "geometry": { "type": "Point", "coordinates": [ 100.613358, 13.759204 ] } },
{ "type": "Feature", "properties": { "No": 14, "Area": "ถนนแฮปปี้แลนด์สาย 1 ตัดถนนนวมินทร์", "District": "บางกะปิ", "Zone": "กรุงเทพตะวันออก", "Latitude": 13.780568, "Longitude": 100.645198, "Source": "iTic+ThaiRSC", "Response": "กผ.1+กค.1", "Gridelines_problem": "1) ประสาน สน.ท้องที่เพื่อกวดขันวินัยจราจร 2) จัดทำเส้นเครื่องหมายจราจร และทางข้ามให้ชัดเจน", "ThaiRSC_2566": 26, "iTIC_2566": 0, "Remark": null }, "geometry": { "type": "Point", "coordinates": [ 100.645198, 13.780568 ] } },
{ "type": "Feature", "properties": { "No": 15, "Area": "แยกถนนประเสริฐมนูกิจ ถนนนวลจันทร์", "District": "บึงกุ่ม", "Zone": "กรุงเทพตะวันออก", "Latitude": 13.812499, "Longitude": 100.647387, "Source": "iRAP", "Response": "กผ.1+กค.1", "Gridelines_problem": "1) ประสาน สน.ท้องที่เพื่อกวดขันวินัยจราจร การจอดรถข้างทาง ในพื้นที่ห้ามจอด 2) ปรับปรุงเส้นจราจรและเครื่องหมายจราจรบนพื้นทางให้ชัดเจน", "ThaiRSC_2566": 24, "iTIC_2566": 0, "Remark": "1 ดาว" }, "geometry": { "type": "Point", "coordinates": [ 100.647387, 13.812499 ] } },
{ "type": "Feature", "properties": { "No": 16, "Area": "แยกเสรีไทย 83 ถนนเสรีไทย", "District": "คันนายาว", "Zone": "กรุงเทพตะวันออก", "Latitude": 13.797563, "Longitude": 100.696198, "Source": "iRAP", "Response": "กผ.1+กค.1", "Gridelines_problem": "1) ติดตั้งป้ายเตือน \"ลดความเร็ว ข้างหน้าเกิดอุบัติเหตุบ่อยครั้ง\" เพื่อกระตุ้นเตือนผู้ขับขี่ บริเวณถนนเสรีไทย 2) ติดตั้งป้าย \"หยุด\" บริเวณปากซอย เพื่อแจ้งเตือนให้ขับขี่ระมัดระวังก่อนออกจากซอย ", "ThaiRSC_2566": 8, "iTIC_2566": 1, "Remark": "1 ดาว" }, "geometry": { "type": "Point", "coordinates": [ 100.696198, 13.797563 ] } },
{ "type": "Feature", "properties": { "No": 17, "Area": "หน้าซอยศรีนครินทร์ - ร่มเกล้า 25 ถนนศรีนครินทร์-ร่มเกล้า", "District": "สะพานสูง", "Zone": "กรุงเทพตะวันออก", "Latitude": 13.752855, "Longitude": 100.69518, "Source": "iRAP", "Response": "กผ.1+กค.1", "Gridelines_problem": "1) ติดตั้งหลักล้มลุก บริเวณหัวเกาะก่อนเข้าทางร่วม 2) ปรับปรุงป้ายเตือนทางร่วม และห้ามเลี้ยวขวาให้ชัดเจน บริเวณหัวเกาะก่อนเข้า ทางร่วมเพื่อกระตุ้นเตือนผู้ขับขี่ 3) ติดตั้งป้ายเตือนหัวเกาะแบบไฟกะพริบด้วยพลังงานแสงอาทิตย์", "ThaiRSC_2566": 2, "iTIC_2566": 1, "Remark": "1 ดาว" }, "geometry": { "type": "Point", "coordinates": [ 100.69518, 13.752855 ] } },
{ "type": "Feature", "properties": { "No": 19, "Area": "หน้าโรงเรียนเอกบูรพา ถนนสามวา", "District": "มีนบุรี", "Zone": "กรุงเทพตะวันออก", "Latitude": 13.824864, "Longitude": 100.725961, "Source": "iRAP", "Response": "กผ.1+กค.1", "Gridelines_problem": "1) ประสาน สน.ท้องที่เพื่อกวดขันวินัยจราจร การจอดรถข้างทาง ในพื้นที่ห้ามจอด 2) ติดตั้งป้ายเตือน เขตโรงเรียนลดความเร็ว บริเวณถนนสามวา 3) ติดตั้งเทปจราจรสะท้อนแสง เพื่อเพิ่มทัศนวิสัยในการมองเห็นช่วงเวลากลางคืน และในเวลาฝนตก 4) ติดตั้งเป้าสะท้อนแสง บริเวณหัวเกาะจุดกลับรถ", "ThaiRSC_2566": 0, "iTIC_2566": 0, "Remark": null }, "geometry": { "type": "Point", "coordinates": [ 100.725961, 13.824864 ] } },
{ "type": "Feature", "properties": { "No": 20, "Area": "ซอยนิมิตใหม่ 3/1 ถนนนิมิตรใหม่", "District": "คลองสามวา", "Zone": "กรุงเทพตะวันออก", "Latitude": 13.832897, "Longitude": 100.737024, "Source": "iRAP", "Response": "กผ.1+กค.1", "Gridelines_problem": "1) ติดตั้งป้ายเตือนทางเข้า-ออก 2) ติดตั้งป้ายเตือนลดความเร็ว 3) ปรับปรุงเส้นจราจรและเครื่องหมายจราจรบนพื้นทางให้ชัดเจน", "ThaiRSC_2566": 4, "iTIC_2566": 2, "Remark": null }, "geometry": { "type": "Point", "coordinates": [ 100.737024, 13.832897 ] } },
{ "type": "Feature", "properties": { "No": 21, "Area": "ถนนเจริญกรุง", "District": "ป้อมปราบศัตรูพ่าย", "Zone": "กรุงเทพกลาง", "Latitude": 13.746785, "Longitude": 100.503939, "Source": null, "Response": null, "Gridelines_problem": "1) ติดตั้ง Reflective sheeting ช่วงขึ้นและลงสะพาน 2) ติดตั้งรั้วบริเวณทางโค้ง ทางแยก และเชิงลาดสะพาน 3) ปรับปรุงเครื่องหมายจราจรบนพื้นทางให้ชัดเจน", "ThaiRSC_2566": 18, "iTIC_2566": 2, "Remark": null }, "geometry": { "type": "Point", "coordinates": [ 100.503939, 13.746785 ] } },
{ "type": "Feature", "properties": { "No": 22, "Area": "แยกผ่านพิภพลีลา ถนนราชดำเนิน", "District": "พระนคร", "Zone": "กรุงเทพกลาง", "Latitude": 13.757009, "Longitude": 100.494876, "Source": null, "Response": null, "Gridelines_problem": "1) ติดตั้ง Reflective sheeting (ในทิศทางที่รถออกจากไฟแดง) 2) ติดตั้งรั้วบริเวณทางเดิน 3) ติดตั้งป้ายแจ้งเตือนหัวเกาะ 4) ปรับปรุงเครื่องหมายจราจรบนพื้นทางให้ชัดเจน", "ThaiRSC_2566": 49, "iTIC_2566": 2, "Remark": null }, "geometry": { "type": "Point", "coordinates": [ 100.494876, 13.757009 ] } },
{ "type": "Feature", "properties": { "No": 23, "Area": "อนุสาวรีย์ประชาธิปไตย ถนนราชดำเนินกลาง", "District": "พระนคร", "Zone": "กรุงเทพกลาง", "Latitude": 13.756496, "Longitude": 100.502367, "Source": null, "Response": null, "Gridelines_problem": "1) ติดตั้ง Reflective sheeting รอบอนุสาวรีย์ประชาธิปไตย 2) ติดตั้งรั้วบริเวณทางเดินข้ามถนน รอบอนุสาวรีย์ประชาธิปไตย 3) ปรับปรุงเครื่องหมายจราจรบนพื้นทางให้ชัดเจน", "ThaiRSC_2566": 240, "iTIC_2566": 1, "Remark": null }, "geometry": { "type": "Point", "coordinates": [ 100.502367, 13.756496 ] } },
{ "type": "Feature", "properties": { "No": 26, "Area": "แยกกรมศุลกากรถึง ใต้ทางด่วนถนนเกษมราษฎร์", "District": "คลองเตย", "Zone": "กรุงเทพใต้", "Latitude": 13.713936, "Longitude": 100.564909, "Source": "iTic+ThaiRSC", "Response": "กผ.2+กค.2", "Gridelines_problem": "1) ติดตั้ง Lane Block พร้อมทำจุดพักคนเดินข้ามบริเวณเกาะกลางสี 2) ติดตั้งป้ายแจ้งเตือนรถออกจากซอย 2 ชุด 3) ติดตั้ง cushion tank 4) ติดตั้งป้ายหัวเกาะพลังงานแสงอาทิตย์ 5) ติดตั้ง Reflective heeting", "ThaiRSC_2566": 123, "iTIC_2566": 5, "Remark": null }, "geometry": { "type": "Point", "coordinates": [ 100.564909, 13.713936 ] } },
{ "type": "Feature", "properties": { "No": 27, "Area": "หน้าศูนย์ประชุมแห่งชาติ สิริกิตต์ ถนนรัชดาภิเษก", "District": "คลองเตย", "Zone": "กรุงเทพใต้", "Latitude": 13.724373, "Longitude": 100.560358, "Source": "iTic+ThaiRSC", "Response": "กผ.2+กค.2", "Gridelines_problem": "1) ทาสี Barrier Concrete และติดตั้งเป้าสะท้อนแสง 2) ติดตั้งแผ่นแสงกันตาพร่า (Anti Glare board) 3) ติดตั้ง Reflective Sheeting 4) ติดตั้งป้ายจำกัดความเร็วและแสดงความเร็วพลังงานแสงอาทิตย์ 5) ติดตั้งเสาจราจรล้มลุก", "ThaiRSC_2566": 45, "iTIC_2566": 2, "Remark": null }, "geometry": { "type": "Point", "coordinates": [ 100.560358, 13.724373 ] } },
{ "type": "Feature", "properties": { "No": 28, "Area": "ปากซอยเอกมัย ซอย 5", "District": "วัฒนา", "Zone": "กรุงเทพใต้", "Latitude": 13.730825, "Longitude": 100.586436, "Source": "iRAP", "Response": "กผ.2+กค.2", "Gridelines_problem": "1) ติดตั้ง Reflective sheeting (ในทิศทางที่รถออกจากไฟแดง) 2) ติดตั้งรั้วบริเวณทางเดิน (จุดทางข้าม) 3) ปรับปรุงเครื่องหมายจราจรบนพื้นทางให้ชัดเจน", "ThaiRSC_2566": 41, "iTIC_2566": 6, "Remark": null }, "geometry": { "type": "Point", "coordinates": [ 100.586436, 13.730825 ] } },
{ "type": "Feature", "properties": { "No": 29, "Area": "ปากซอยพระราม 9 ซอย 49", "District": "สวนหลวง", "Zone": "กรุงเทพใต้", "Latitude": 13.742422, "Longitude": 100.632251, "Source": "iRAP", "Response": "กผ.2+กค.2", "Gridelines_problem": "1) ติดตั้ง Reflective sheeting 2) ปรับปรุงเครื่องหมายจราจรบนพื้นทางให้ชัดเจน", "ThaiRSC_2566": 5, "iTIC_2566": 2, "Remark": null }, "geometry": { "type": "Point", "coordinates": [ 100.632251, 13.742422 ] } },
{ "type": "Feature", "properties": { "No": 30, "Area": "ชาเทรียม สาทร ซอยนราธิวาสราชนครินทร์ 24", "District": "ยานนาวา", "Zone": "กรุงเทพใต้", "Latitude": 13.701759, "Longitude": 100.537577, "Source": "iRAP", "Response": "กผ.2+กค.2", "Gridelines_problem": "1) ติดตั้ง Reflective sheeting 2) ปรับปรุงเครื่องหมายจราจรบนพื้นทางให้ชัดเจน", "ThaiRSC_2566": 2, "iTIC_2566": 0, "Remark": null }, "geometry": { "type": "Point", "coordinates": [ 100.537577, 13.701759 ] } },
{ "type": "Feature", "properties": { "No": 31, "Area": "แยกสาทร-นราธิวาส", "District": "สาทร", "Zone": "กรุงเทพใต้", "Latitude": 13.721813, "Longitude": 100.530256, "Source": "iTic+ThaiRSC", "Response": "กผ.2+กค.2", "Gridelines_problem": "1) ติดตั้ง Reflective sheeting (ในทิศทางที่รถออกจากไฟแดง) 2) ติดตั้งรั้วบริเวณทางเดิน 3) ติดตั้ง Lane Block 4) ทาสี Barrier Concrete", "ThaiRSC_2566": 75, "iTIC_2566": 12, "Remark": null }, "geometry": { "type": "Point", "coordinates": [ 100.530256, 13.721813 ] } },
{ "type": "Feature", "properties": { "No": 32, "Area": "ปากซอยจันทน์ 42", "District": "บางคอแหลม", "Zone": "กรุงเทพใต้", "Latitude": 13.708862, "Longitude": 100.514672, "Source": "iRAP", "Response": "กผ.2+กค.2", "Gridelines_problem": "1) ติดตั้ง Reflective sheeting  2) ปรับปรุงเครื่องหมายจราจรบนพื้นทางให้ชัดเจน 3) ติดตั้ง Lane Block", "ThaiRSC_2566": 24, "iTIC_2566": 2, "Remark": null }, "geometry": { "type": "Point", "coordinates": [ 100.514672, 13.708862 ] } },
{ "type": "Feature", "properties": { "No": 33, "Area": "ปากซอยรองเมือง 5", "District": "ปทุมวัน", "Zone": "กรุงเทพใต้", "Latitude": 13.747587, "Longitude": 100.522906, "Source": "iRAP", "Response": "กผ.2+กค.2", "Gridelines_problem": "1) ติดตั้ง Reflective sheeting  2) ปรับปรุงเครื่องหมายจราจรบนพื้นทางให้ชัดเจน 3) ติดตั้งรั้วบริเวณทางเดิน (จุดทางข้าม)", "ThaiRSC_2566": 46, "iTIC_2566": 0, "Remark": null }, "geometry": { "type": "Point", "coordinates": [ 100.522906, 13.747587 ] } },
{ "type": "Feature", "properties": { "No": 34, "Area": "แยกโรงพยาบาลบางรัก ถึงซอยสาทร 10 ตัดซอยสีลม 9", "District": "บางรัก", "Zone": "กรุงเทพใต้", "Latitude": 13.721321, "Longitude": 100.527792, "Source": "iRAP", "Response": "กผ.2+กค.2", "Gridelines_problem": "1) ติดตั้ง Reflective sheeting  2) ติดตั้งหลักล้มลุกบริเวณเกาะกลาง 3) ติดตั้งแผงสะท้อนแสงแบบติด Curb บริเวณจุดกลับรถ", "ThaiRSC_2566": 17, "iTIC_2566": 2, "Remark": null }, "geometry": { "type": "Point", "coordinates": [ 100.527792, 13.721321 ] } },
{ "type": "Feature", "properties": { "No": 35, "Area": "แยกอุดมสุข", "District": "บางนา", "Zone": "กรุงเทพใต้", "Latitude": 13.678843, "Longitude": 100.609184, "Source": "iRAP", "Response": "กผ.2+กค.2", "Gridelines_problem": "1) ติดตั้ง Reflective sheeting (ในทิศทางที่รถออกจากไฟแดง) 2) ติดตั้งรั้วบริเวณทางเดิน 3) ปรับปรุงเครื่องหมายจราจรบนพื้นทางให้ชัดเจน 4) แผงสะท้อนแสง สำหรับติด CURB และ BARRIER", "ThaiRSC_2566": 78, "iTIC_2566": 3, "Remark": null }, "geometry": { "type": "Point", "coordinates": [ 100.609184, 13.678843 ] } },
{ "type": "Feature", "properties": { "No": 36, "Area": "หน้าบิ้กซีอิสรภาพ ถนนอิสรภาพ", "District": "ธนบุรี", "Zone": "กรุงธนเหนือ", "Latitude": 13.732142, "Longitude": 100.493091, "Source": "iRAP", "Response": "กผ.3+กค.3", "Gridelines_problem": "1) ประสานสำนักงานเขตตัดแต่งกิ่งไม้ที่ยื่นล้ำเข้าไปในถนน 2) ปรับปรุงเครื่องหมายจราจรบนพื้นทางให้ชัดเจน", "ThaiRSC_2566": 57, "iTIC_2566": 2, "Remark": null }, "geometry": { "type": "Point", "coordinates": [ 100.493091, 13.732142 ] } },
{ "type": "Feature", "properties": { "No": 37, "Area": "หน้าโรงเรียนวัดนางนอง ถนนวุฒากาศ", "District": "จอมทอง", "Zone": "กรุงธนเหนือ", "Latitude": 13.703024, "Longitude": 100.467148, "Source": "iRAP", "Response": "กผ.3+กค.3", "Gridelines_problem": "1) ประสาน สน.ท้องที่เพื่อกวดขันวินัยจราจร ห้ามจอดรถในที่ห้ามจอด 2) ปรับปรุงเครื่องหมายจราจรบนพื้นทางให้ชัดเจน", "ThaiRSC_2566": 37, "iTIC_2566": 1, "Remark": null }, "geometry": { "type": "Point", "coordinates": [ 100.467148, 13.703024 ] } },
{ "type": "Feature", "properties": { "No": 38, "Area": "ใกล้ MRT จรัญสนิทวงศ์ 13 ถนนจรัญสนิทวงศ์", "District": "บางกอกใหญ่", "Zone": "กรุงธนเหนือ", "Latitude": 13.739438, "Longitude": 100.47079, "Source": "iTic+ThaiRSC", "Response": "กผ.3+กค.3", "Gridelines_problem": "1) ติดตั้งป้ายแนะนำลดความเร็วล่วงหน้าก่อนเข้าสู่ใต้สถานีรถไฟฟ้าจรัญฯ 13 ระยะทางประมาณ 75 ม. 2) ประสาน รฟม. ติดตั้งโคมไฟส่องสว่างตลอดแนวสถานีเป็นระยะ เพื่อให้มีแสงสว่าง เพียงพอ 3) ประสาน รฟม. ให้ตรวจสอบ ดูแล บำรุงรักษาโคมไฟส่องสว่างให้ใช้งานได้ดี อยู่ตลอดเวลา", "ThaiRSC_2566": 14, "iTIC_2566": 4, "Remark": null }, "geometry": { "type": "Point", "coordinates": [ 100.47079, 13.739438 ] } },
{ "type": "Feature", "properties": { "No": 39, "Area": "ปากซอยเจริญนคร 32/1 ถนนเจริญนคร", "District": "คลองสาน", "Zone": "กรุงธนเหนือ", "Latitude": 13.712063, "Longitude": 100.501147, "Source": "iRAP", "Response": "กผ.3+กค.3", "Gridelines_problem": "1) ตีเส้นกากบาทเหลือง 2) ตีเส้นจราจรให้ชัดเจน 3) ติดตั้งป้ายเตือนก่อนออกจากซอย", "ThaiRSC_2566": 51, "iTIC_2566": 3, "Remark": null }, "geometry": { "type": "Point", "coordinates": [ 100.501147, 13.712063 ] } },
{ "type": "Feature", "properties": { "No": 40, "Area": "ใกล้ห้างเซ็นทรัลปิ่นเกล้า ถนนบรมราชชนนี", "District": "บางกอกน้อย", "Zone": "กรุงธนเหนือ", "Latitude": 13.778816, "Longitude": 100.476744, "Source": "iTic+ThaiRSC", "Response": "กผ.3+กค.3", "Gridelines_problem": "1) ประสาน สน.ท้องที่เพื่อกวดขันวินัย ราจร 2) ปรับปรุงเส้นจราจรให้มีความชัดเจน 3) ประสานงานสำนักงานเขตตัดแต่งกิ่งไม้ไม่ให้บดบังป้ายจราจร", "ThaiRSC_2566": 9, "iTIC_2566": 8, "Remark": null }, "geometry": { "type": "Point", "coordinates": [ 100.476744, 13.778816 ] } },
{ "type": "Feature", "properties": { "No": 41, "Area": "ปากซอยอิสรภาพ 44 ถนนอิสรภาพ", "District": "บางกอกน้อย", "Zone": "กรุงธนเหนือ", "Latitude": 13.752219, "Longitude": 100.47811, "Source": "iRAP", "Response": "กผ.3+กค.3", "Gridelines_problem": "1) ประสาน สน.ท้องที่เพื่อกวดขันวินัยจราจร และการควบคุมสัญญาณไฟจราจรให้เหมาะสม 2) ปรับปรุงเครื่องหมายห้ามหยุด (Yellow Box) 3) ปรับปรุงเส้นจราจรและเครื่องหมายจราจรบนพื้นทางให้ชัดเจน 4) ประสานกลุ่มงานสัญญาณไฟจราจรตรวจสอบระยะเวลารอบสัญญาณไฟให้เหมาะสม 5) ติดตั้งเทปจราจรสะท้อนแสงเพิ่มทัศนวิสัยในตอนกลางคืน", "ThaiRSC_2566": 43, "iTIC_2566": 8, "Remark": null }, "geometry": { "type": "Point", "coordinates": [ 100.47811, 13.752219 ] } },
{ "type": "Feature", "properties": { "No": 42, "Area": "ซอยจรัญสนิทวงศ์ 55 ถึง ซอยจรัญสนิทวงศ์ 57 ถนนจรัญสนิทวงศ์", "District": "บางพลัด", "Zone": "กรุงธนเหนือ", "Latitude": 13.778536, "Longitude": 100.48612, "Source": "iTic+ThaiRSC", "Response": "กผ.3+กค.3", "Gridelines_problem": "1) ติดตั้งเครื่องหมายจำกัดความเร็วหรือเส้นชะลอความเร็วบนพื้นทาง 2) ประสาน สน.ท้องที่เพื่อกวดขันวินัยจราจร 3) ปรับปรุงเส้นจราจรให้มีความชัดเจน 4) ติดตั้งเทปจราจรสะท้อนแสงเพิ่มทัศนวิสัยในตอนกลางคืน 5) ประสานสำนักงานเขตตัดแต่งกิ่งไม้ที่ยื่นล้ำเข้าไปในถนน", "ThaiRSC_2566": 11, "iTIC_2566": 2, "Remark": null }, "geometry": { "type": "Point", "coordinates": [ 100.48612, 13.778536 ] } },
{ "type": "Feature", "properties": { "No": 43, "Area": "แยกถนนบรมราชชนนี ถนนพุทธมณฑลสาย 3", "District": "ทวีวัฒนา", "Zone": "กรุงธนเหนือ", "Latitude": 13.786427, "Longitude": 100.363785, "Source": "iRAP", "Response": "กผ.3+กค.3", "Gridelines_problem": "1) ประสาน สน.ท้องที่เพื่อกวดขันวินัยจราจร 2) ติดตั้ง Crash Cushion 3) ติดตั้งหลักล้มลุก 4) ติดตั้งป้ายเตือนหัวเกาะแบบไฟกะพริบด้วยพลังงานแสงอาทิตย์", "ThaiRSC_2566": 5, "iTIC_2566": 0, "Remark": null }, "geometry": { "type": "Point", "coordinates": [ 100.363785, 13.786427 ] } },
{ "type": "Feature", "properties": { "No": 44, "Area": "แยกถนนปากน้ำฝั่งเหนือ ถนนแก้วเงินทอง", "District": "ตลิ่งชัน", "Zone": "กรุงธนเหนือ", "Latitude": 13.75511, "Longitude": 100.455163, "Source": "iRAP", "Response": "กผ.3+กค.3", "Gridelines_problem": "1) ประสาน สน.ท้องที่เพื่อกวดขันวินัยจราจร 2) จัดทำเส้น เครื่องหมายจราจร และทางข้าม ให้ชัดเจน 3) ติดตั้งป้ายเตือนทางแยก", "ThaiRSC_2566": 3, "iTIC_2566": 2, "Remark": null }, "geometry": { "type": "Point", "coordinates": [ 100.455163, 13.75511 ] } },
{ "type": "Feature", "properties": { "No": 45, "Area": "ปากซอยเพชรเกษม 81 ถนนมาเจริญ", "District": "หนองแขม", "Zone": "กรุงธนใต้", "Latitude": 13.701229, "Longitude": 100.340177, "Source": "iRAP", "Response": "กผ.3+กค.3", "Gridelines_problem": "1) ประสาน สน.ท้องที่เพื่อกวดขันวินัยจราจร 2) ปรับปรุงเส้นจราจรให้ชัดเจน", "ThaiRSC_2566": 2, "iTIC_2566": 0, "Remark": null }, "geometry": { "type": "Point", "coordinates": [ 100.340177, 13.701229 ] } },
{ "type": "Feature", "properties": { "No": 46, "Area": "ปากซอยมาเจริญซอย 3 ถนนมาเจริญ", "District": "หนองแขม", "Zone": "กรุงธนใต้", "Latitude": 13.690104, "Longitude": 100.34232, "Source": "iRAP", "Response": "กผ.3+กค.3", "Gridelines_problem": "1) ติดตั้งป้ายแจ้งเตือนรถออกจากซอย 2) ติดตั้งป้ายหยุดเตือนรถออกจากซอย 3) ติดตั้งป้ายลดความเร็วและแสดงความเร็วพลังงานแสงอาทิตย์", "ThaiRSC_2566": 18, "iTIC_2566": 0, "Remark": null }, "geometry": { "type": "Point", "coordinates": [ 100.34232, 13.690104 ] } },
{ "type": "Feature", "properties": { "No": 47, "Area": "หน้าสำนักงานเขตราษฎร์บูรณะ ถนนราษฎร์บูรณะ", "District": "ราษฎร์บูรณะ", "Zone": "กรุงธนใต้", "Latitude": 13.681763, "Longitude": 100.505694, "Source": "iRAP", "Response": "กผ.3+กค.3", "Gridelines_problem": "1) ติดตั้งป้ายเตือน \"ลดความเร็ว ข้างหน้าเกิดอุบัติเหตุบ่อยครั้ง\" เพื่อกระตุ้นเตือนผู้ขับขี่ ", "ThaiRSC_2566": 19, "iTIC_2566": 2, "Remark": null }, "geometry": { "type": "Point", "coordinates": [ 100.505694, 13.681763 ] } },
{ "type": "Feature", "properties": { "No": 48, "Area": "ปากซอยพุทธบูชา 36 แยก 6 ถนนพุทธบูชา ซอย 36", "District": "ทุ่งครุ", "Zone": "กรุงธนใต้", "Latitude": 13.639998, "Longitude": 100.478116, "Source": "iRAP", "Response": "กผ.3+กค.3", "Gridelines_problem": "1) ติดตั้งป้ายเตือนออกจากซอย 2) ปรับปรุงเครื่องหมายจราจรพื้นทาง", "ThaiRSC_2566": 4, "iTIC_2566": 0, "Remark": null }, "geometry": { "type": "Point", "coordinates": [ 100.478116, 13.639998 ] } },
{ "type": "Feature", "properties": { "No": 49, "Area": "ปากซอยเข้าโรงเรียนราชมนตรี ถนนบางขุนเทียน - ชายทะเล", "District": "บางขุนเทียน", "Zone": "กรุงธนใต้", "Latitude": 13.641662, "Longitude": 100.432106, "Source": "iRAP", "Response": "กผ.3+กค.3", "Gridelines_problem": "1) พิจารณาให้ช่องซ้ายสุด ก่อนถึงซอยเข้าโรงเรียนราชมนตรี ให้เลี้ยวซ้ายเท่านั้น", "ThaiRSC_2566": 66, "iTIC_2566": 7, "Remark": null }, "geometry": { "type": "Point", "coordinates": [ 100.432106, 13.641662 ] } },
{ "type": "Feature", "properties": { "No": 50, "Area": "ปากซอยถนนพรหมราชฎร์ ถนนเอกชัยซอย 131", "District": "บางบอน", "Zone": "กรุงธนใต้", "Latitude": 13.630235, "Longitude": 100.376347, "Source": "iRAP", "Response": "กผ.3+กค.3", "Gridelines_problem": "1) ตีเส้นทะแยงเหลือง 2) ปรับปรุงเครื่องหมายจราจรพื้นทางให้ชัดเจน 3) ตีเส้นทึบ", "ThaiRSC_2566": 44, "iTIC_2566": 1, "Remark": null }, "geometry": { "type": "Point", "coordinates": [ 100.376347, 13.630235 ] } }
]
}
