{
"type": "FeatureCollection",
"name": "police",
"crs": { "type": "name", "properties": { "name": "urn:ogc:def:crs:OGC:1.3:CRS84" } },
"features": [
{ "type": "Feature", "properties": { "POLICE_ID": 2, "NAME": "สถานีตำรวจนครบาลพญาไท", "ADDRESS": null, "TEL": "0 2246 8301 - 02, 02246 1200 01, 0 2241 1196 - 99", "FAX": "0 2246 8300", "DCODE": 1037, "X": null, "Y": 1521642.02, "URL": null }, "geometry": { "type": "Point", "coordinates": [ 100.530361177550859, 13.75939077813884 ] } },
{ "type": "Feature", "properties": { "POLICE_ID": 6, "NAME": "สถานีตำรวจนครบาลนางเลิ้ง", "ADDRESS": null, "TEL": "0 2281 3002", "FAX": "0 2282 3294", "DCODE": 1008, "X": null, "Y": 1521422.02, "URL": null }, "geometry": { "type": "Point", "coordinates": [ 100.507678068950696, 13.757541960585113 ] } },
{ "type": "Feature", "properties": { "POLICE_ID": 59, "NAME": "สถานีตำรวจนครบาลบางขุนนนท์", "ADDRESS": null, "TEL": "0 2424 0541 - 3", "FAX": "0 2424 0302", "DCODE": 1020, "X": null, "Y": 1521373.043, "URL": null }, "geometry": { "type": "Point", "coordinates": [ 100.466594291922803, 13.75734717295096 ] } },
{ "type": "Feature", "properties": { "POLICE_ID": 25, "NAME": "สถานีตำรวจนครบาลฉลองกรุง", "ADDRESS": null, "TEL": "0 2326 1742 - 6", "FAX": "0 2326 1742 - 6 ต่อ 106", "DCODE": 1011, "X": null, "Y": 1521367.493, "URL": null }, "geometry": { "type": "Point", "coordinates": [ 100.800280798010306, 13.755085191918333 ] } },
{ "type": "Feature", "properties": { "POLICE_ID": 52, "NAME": "สถานีตำรวจนครบาลสำราญราษฎร์", "ADDRESS": null, "TEL": "0 2226 2136 - 40", "FAX": "0 2225 7430", "DCODE": 1001, "X": null, "Y": 1520770.147, "URL": null }, "geometry": { "type": "Point", "coordinates": [ 100.503933626291982, 13.751672303156241 ] } },
{ "type": "Feature", "properties": { "POLICE_ID": 3, "NAME": "สถานีตำรวจนครบาลมักกะสัน", "ADDRESS": null, "TEL": "0 2318 1821, 0 2318 1821", "FAX": "0 2319 3000", "DCODE": 1017, "X": null, "Y": 1520262.414, "URL": null }, "geometry": { "type": "Point", "coordinates": [ 100.582457025359631, 13.746591294832537 ] } },
{ "type": "Feature", "properties": { "POLICE_ID": 50, "NAME": "สถานีตำรวจนครบาลพลับพลาไชย 2", "ADDRESS": null, "TEL": "0 2221 1835, 0 2224 2512, 0 22242589, 0 2224 2610", "FAX": "0 2225 7433", "DCODE": 1008, "X": null, "Y": 1519933.377, "URL": null }, "geometry": { "type": "Point", "coordinates": [ 100.510740962588784, 13.74406680016744 ] } },
{ "type": "Feature", "properties": { "POLICE_ID": 53, "NAME": "สถานีตำรวจนครบาลพระราชวัง", "ADDRESS": null, "TEL": "0 2224 5050, 0 2223 1930", "FAX": "0 2225 7432", "DCODE": 1001, "X": null, "Y": 1519813.298, "URL": null }, "geometry": { "type": "Point", "coordinates": [ 100.494436093518331, 13.743080686251478 ] } },
{ "type": "Feature", "properties": { "POLICE_ID": 62, "NAME": "สถานีตำรวจนครบาลบางเสาธง", "ADDRESS": null, "TEL": "0 2410 8260 - 5", "FAX": "0 2865 7466", "DCODE": 1022, "X": null, "Y": 1519809.717, "URL": null }, "geometry": { "type": "Point", "coordinates": [ 100.459851732348369, 13.743255428859225 ] } },
{ "type": "Feature", "properties": { "POLICE_ID": 61, "NAME": "สถานีตำรวจนครบาลบางกอกใหญ่", "ADDRESS": null, "TEL": "0 2466 6691, 0 2466 6696", "FAX": "0 2472 1110", "DCODE": 1016, "X": null, "Y": 1519648.735, "URL": null }, "geometry": { "type": "Point", "coordinates": [ 100.48680867278469, 13.741639218831121 ] } },
{ "type": "Feature", "properties": { "POLICE_ID": 42, "NAME": "สถานีตำรวจนครบาลคลองตัน", "ADDRESS": null, "TEL": "0 2314 0041 - 3, 0 2314 0035 - 7, 0-2314 0310", "FAX": " ", "DCODE": 1034, "X": null, "Y": 1519640.918, "URL": null }, "geometry": { "type": "Point", "coordinates": [ 100.617471125834911, 13.740746431192449 ] } },
{ "type": "Feature", "properties": { "POLICE_ID": 54, "NAME": "สถานีตํารวจนครบาลจักรวรรดิ", "ADDRESS": null, "TEL": "0 2225 4077 - 78", "FAX": "0 2225 3884", "DCODE": 1013, "X": null, "Y": 1519558.223, "URL": null }, "geometry": { "type": "Point", "coordinates": [ 100.502195401933633, 13.740727824566385 ] } },
{ "type": "Feature", "properties": { "POLICE_ID": 43, "NAME": "สถานีตำรวจนครบาลทองหล่อ", "ADDRESS": null, "TEL": "0 2390 2240 - 8", "FAX": "0 2390 2254", "DCODE": 1039, "X": null, "Y": 1519094.034, "URL": null }, "geometry": { "type": "Point", "coordinates": [ 100.5835998148155, 13.736022850701477 ] } },
{ "type": "Feature", "properties": { "POLICE_ID": 70, "NAME": "สถานีตำรวจนครบาลบุปผาราม", "ADDRESS": null, "TEL": "0 2466 1150, 0 2466 7555", "FAX": " ", "DCODE": 1015, "X": null, "Y": 1519053.3, "URL": null }, "geometry": { "type": "Point", "coordinates": [ 100.489867692546227, 13.736238351905975 ] } },
{ "type": "Feature", "properties": { "POLICE_ID": 63, "NAME": "สถานีตำรวจนครบาลท่าพระ", "ADDRESS": null, "TEL": "0 2457 8662 - 4", "FAX": "0 2457 6591", "DCODE": 1016, "X": null, "Y": 1518292.522, "URL": null }, "geometry": { "type": "Point", "coordinates": [ 100.465661708274283, 13.729506214954938 ] } },
{ "type": "Feature", "properties": { "POLICE_ID": 44, "NAME": "สถานีตำรวจนครบาลลุมพินี", "ADDRESS": null, "TEL": "0 2255 5993 - 7", "FAX": "0 2251 0579", "DCODE": 1007, "X": null, "Y": 1518573.872, "URL": null }, "geometry": { "type": "Point", "coordinates": [ 100.545997946160256, 13.731559415217539 ] } },
{ "type": "Feature", "properties": { "POLICE_ID": 73, "NAME": "สถานีตำรวจนครบาลปากคลองสาน", "ADDRESS": null, "TEL": "0 2438-1030 - 2, 0 2437 2164, 0 2437 5410, 0 2437 6653", "FAX": "0 2439 2910", "DCODE": 1018, "X": null, "Y": 1518489.871, "URL": null }, "geometry": { "type": "Point", "coordinates": [ 100.509868811279688, 13.7310237318824 ] } },
{ "type": "Feature", "properties": { "POLICE_ID": 55, "NAME": "สถานีตำรวจนครบาลบางรัก", "ADDRESS": null, "TEL": "0 2631 8014, 0 2235 9123 - 24, 0 2234 0242", "FAX": "0 2237 2601", "DCODE": 1004, "X": null, "Y": 1518371.024, "URL": null }, "geometry": { "type": "Point", "coordinates": [ 100.523187762669281, 13.729867610145067 ] } },
{ "type": "Feature", "properties": { "POLICE_ID": 68, "NAME": "สถานีตำรวจนครบาลบางยี่เรือ", "ADDRESS": null, "TEL": "0 2466 7557 - 9, 0 2465 0523, 0 2466 1799", "FAX": "0 2466 7919", "DCODE": 1015, "X": null, "Y": 1518003.856, "URL": null }, "geometry": { "type": "Point", "coordinates": [ 100.486774145084738, 13.726770585849842 ] } },
{ "type": "Feature", "properties": { "POLICE_ID": 38, "NAME": "สถานีตำรวจนครบาลประเวศ", "ADDRESS": null, "TEL": "0 2328  6971 - 2", "FAX": "0 2322 9598", "DCODE": 1032, "X": null, "Y": 1517901.011, "URL": null }, "geometry": { "type": "Point", "coordinates": [ 100.697958710086141, 13.724479156796207 ] } },
{ "type": "Feature", "properties": { "POLICE_ID": 14, "NAME": "สถานีตำรวจนครบาลประชาชื่น", "ADDRESS": null, "TEL": "0 2588 4246 - 9", "FAX": "0 2580 2125", "DCODE": 1030, "X": null, "Y": 1530808.63, "URL": null }, "geometry": { "type": "Point", "coordinates": [ 100.546875097782987, 13.842146516548508 ] } },
{ "type": "Feature", "properties": { "POLICE_ID": 77, "NAME": "สถานีตำรวจนครบาลปากคลองสาน", "ADDRESS": null, "TEL": "0 2438 1034 - 5, 0 2437 2111, 0 2437 1671", "FAX": "0 2438 1036", "DCODE": 1018, "X": null, "Y": 1518502.843, "URL": null }, "geometry": { "type": "Point", "coordinates": [ 100.509805670682468, 13.731141377050584 ] } },
{ "type": "Feature", "properties": { "POLICE_ID": 31, "NAME": "สถานีตำรวจนครบาลสุวินทวงศ์", "ADDRESS": null, "TEL": "0 2988 2460 - 1", "FAX": "0 2988 2454", "DCODE": 1003, "X": null, "Y": 1527162.491, "URL": null }, "geometry": { "type": "Point", "coordinates": [ 100.929351145891502, 13.806481283019599 ] } },
{ "type": "Feature", "properties": { "POLICE_ID": 49, "NAME": "สถานีตำรวจนครบาลปทุมวัน", "ADDRESS": null, "TEL": "0 2221 5291 - 93, 0 2214 1042, 0 2214 1050, 0 2216 8821", "FAX": "0 2215 9104", "DCODE": 1007, "X": null, "Y": 1519131.816, "URL": null }, "geometry": { "type": "Point", "coordinates": [ 100.523038552012778, 13.736745588600755 ] } },
{ "type": "Feature", "properties": { "POLICE_ID": 26, "NAME": "สถานีตำรวจนครบาลจรเข้น้อย", "ADDRESS": null, "TEL": "0 2326 9056, 0 2326 9991, 0 2326 9993, 0 2326 8085", "FAX": "0 2326 8120", "DCODE": 1011, "X": null, "Y": 1517227.313, "URL": null }, "geometry": { "type": "Point", "coordinates": [ 100.791123111652865, 13.717731958226876 ] } },
{ "type": "Feature", "properties": { "POLICE_ID": 22, "NAME": "สถานีตำรวจนครบาลหนองจอก", "ADDRESS": null, "TEL": "0 2543 1993 - 4", "FAX": "0 2543 1990", "DCODE": 1003, "X": null, "Y": 1536926.956, "URL": null }, "geometry": { "type": "Point", "coordinates": [ 100.876589508032296, 13.895139268306554 ] } },
{ "type": "Feature", "properties": { "POLICE_ID": 51, "NAME": "สถานีตำรวจนครบาลพลับพลาไชย 1", "ADDRESS": null, "TEL": "0 2226 2148 - 52, 0 2222 4881", "FAX": "0 2225 7434", "DCODE": 1008, "X": null, "Y": 1519901.377, "URL": null }, "geometry": { "type": "Point", "coordinates": [ 100.510631310991855, 13.743778211644917 ] } },
{ "type": "Feature", "properties": { "POLICE_ID": 72, "NAME": "สถานีตำรวจนครบาลบุคคโล", "ADDRESS": null, "TEL": "0 2460 1454, 0 2460 1465, 0 2460 1480", "FAX": "0 2477 2535", "DCODE": 1018, "X": null, "Y": 1517544.795, "URL": null }, "geometry": { "type": "Point", "coordinates": [ 100.500420550748672, 13.722538392912249 ] } },
{ "type": "Feature", "properties": { "POLICE_ID": 69, "NAME": "สถานีตำรวจนครบาลตลาดพลู", "ADDRESS": null, "TEL": "0 2472 6108 - 9, 0 2472 6622, 0 2472 6624", "FAX": "0 2472 6616", "DCODE": 1015, "X": null, "Y": 1516968.852, "URL": null }, "geometry": { "type": "Point", "coordinates": [ 100.474099689394109, 13.717490626256691 ] } },
{ "type": "Feature", "properties": { "POLICE_ID": 56, "NAME": "สถานีตำรวจนครบาลบางรัก", "ADDRESS": null, "TEL": "0 2233 7148, 0 2233 7297, 0 2236 7083, 0 2630 0170 -1", "FAX": "0 2236 7074", "DCODE": 1004, "X": null, "Y": 1517306.15, "URL": null }, "geometry": { "type": "Point", "coordinates": [ 100.519480523597522, 13.720264676816377 ] } },
{ "type": "Feature", "properties": { "POLICE_ID": 45, "NAME": "สถานีตำรวจนครบาลทุ่งมหาเมฆ", "ADDRESS": null, "TEL": "0 2287 3004 - 8, 0-2213 - 1907, 0 2286 0717, 0 2679 4013", "FAX": "0 2287 3007", "DCODE": 1028, "X": null, "Y": 1517150.284, "URL": null }, "geometry": { "type": "Point", "coordinates": [ 100.539468958442328, 13.718732003865076 ] } },
{ "type": "Feature", "properties": { "POLICE_ID": 46, "NAME": "สถานีตำรวจนครบาลทุ่งมหาเมฆ", "ADDRESS": null, "TEL": "0 2286 1218, 0 2228 6812 - 5", "FAX": "0 2287 3132", "DCODE": 1028, "X": null, "Y": 1517118.386, "URL": null }, "geometry": { "type": "Point", "coordinates": [ 100.539413454634641, 13.718444014482657 ] } },
{ "type": "Feature", "properties": { "POLICE_ID": 79, "NAME": "สถานีตำรวจนครบาลภาษีเจริญ", "ADDRESS": null, "TEL": "0 2413 1114 - 6", "FAX": "0 2805 1599", "DCODE": 1022, "X": null, "Y": 1516676.914, "URL": null }, "geometry": { "type": "Point", "coordinates": [ 100.436919999085575, 13.715070621346063 ] } },
{ "type": "Feature", "properties": { "POLICE_ID": 47, "NAME": "สถานีตำรวจนครบาลวัดพระยาไกร", "ADDRESS": null, "TEL": "0 2291 5867 - 72", "FAX": "0 2289 1300", "DCODE": 1031, "X": null, "Y": 1515267.682, "URL": null }, "geometry": { "type": "Point", "coordinates": [ 100.502605929008908, 13.701941302471139 ] } },
{ "type": "Feature", "properties": { "POLICE_ID": 71, "NAME": "สถานีตำรวจนครบาลสำเหร่", "ADDRESS": null, "TEL": "0 2468 1638 -, 0 2877 5635, 0 2477 2819, 0 2468 8003 - 39", "FAX": "0 2476 1004", "DCODE": 1015, "X": null, "Y": 1515057.469, "URL": null }, "geometry": { "type": "Point", "coordinates": [ 100.489218421652751, 13.700122052381023 ] } },
{ "type": "Feature", "properties": { "POLICE_ID": 78, "NAME": "สถานีตำรวจนครบาลราษฎร์บูรณะ", "ADDRESS": null, "TEL": "0 2427 6286 - 7, 0 2428 4538", "FAX": "0 2427 6288", "DCODE": 1024, "X": null, "Y": 1513394.36, "URL": null }, "geometry": { "type": "Point", "coordinates": [ 100.498852028430946, 13.685030264758112 ] } },
{ "type": "Feature", "properties": { "POLICE_ID": 74, "NAME": "สถานีตำรวจนครบาลราษฎร์บูรณะ", "ADDRESS": null, "TEL": "0 2428 3994, 0 2427 6235, 0 2427 5421", "FAX": " ", "DCODE": 1024, "X": null, "Y": 1513303.15, "URL": null }, "geometry": { "type": "Point", "coordinates": [ 100.498499109311837, 13.684207911142893 ] } },
{ "type": "Feature", "properties": { "POLICE_ID": 80, "NAME": "สถานีตำรวจนครบาลท่าข้าม", "ADDRESS": null, "TEL": "0 2416 2841 - 2", "FAX": "0 2415 1574", "DCODE": 1021, "X": null, "Y": 1508294.558, "URL": null }, "geometry": { "type": "Point", "coordinates": [ 100.446980084396472, 13.639238301932073 ] } },
{ "type": "Feature", "properties": { "POLICE_ID": 76, "NAME": "สถานีตำรวจนครบาลทุ่งครุ", "ADDRESS": null, "TEL": "0 2426 0108 - 9, 0 2426 1110, 0 2426 1991", "FAX": "0 2426 1112", "DCODE": 1049, "X": null, "Y": 1507035.48, "URL": null }, "geometry": { "type": "Point", "coordinates": [ 100.506937357721469, 13.627500397218256 ] } },
{ "type": "Feature", "properties": { "POLICE_ID": 88, "NAME": "สถานีตำรวจนครบาลเทียนทะเล", "ADDRESS": null, "TEL": "0 2897 3271 - 5", "FAX": " ", "DCODE": 1021, "X": null, "Y": 1506159.442, "URL": null }, "geometry": { "type": "Point", "coordinates": [ 100.437713331997273, 13.619991256514254 ] } },
{ "type": "Feature", "properties": { "POLICE_ID": 18, "NAME": "สถานีตำรวจนครบาลสายไหม", "ADDRESS": null, "TEL": "0 2531 5017, 0 2531 1921", "FAX": "0 2533 7297", "DCODE": 1042, "X": null, "Y": 1539383.842, "URL": null }, "geometry": { "type": "Point", "coordinates": [ 100.6456555971711, 13.919012315623593 ] } },
{ "type": "Feature", "properties": { "POLICE_ID": 17, "NAME": "สถานีตำรวจนครบาลบางเขน", "ADDRESS": null, "TEL": "0 2521 1193, 0 2521 2231, 0 2521 0070, 0 2521 0041", "FAX": "0 2970 6533, 0 2521 2233", "DCODE": 1005, "X": null, "Y": 1534474.3, "URL": null }, "geometry": { "type": "Point", "coordinates": [ 100.5980574709357, 13.874951927937097 ] } },
{ "type": "Feature", "properties": { "POLICE_ID": 12, "NAME": "สถานีตำรวจนครบาลพหลโยธิน", "ADDRESS": null, "TEL": "0 2512 2447 - 9", "FAX": "0 2512 2450", "DCODE": 1030, "X": null, "Y": 1529021.406, "URL": null }, "geometry": { "type": "Point", "coordinates": [ 100.569851328703621, 13.825845503450585 ] } },
{ "type": "Feature", "properties": { "POLICE_ID": 75, "NAME": "สถานีตำรวจนครบาลบางมด", "ADDRESS": null, "TEL": "0 2416 7711 - 2, 0 2416 4713 - 4", "FAX": "0 2416 7710", "DCODE": 1035, "X": null, "Y": 1512121.798, "URL": null }, "geometry": { "type": "Point", "coordinates": [ 100.455010907657453, 13.67378826904819 ] } },
{ "type": "Feature", "properties": { "POLICE_ID": 85, "NAME": "สถานีตำรวจนครบาลบางขุนเทียน", "ADDRESS": null, "TEL": "0 2415 3004, 0 2415 0671, 0 2415 3475", "FAX": "0 2415 2826", "DCODE": 1035, "X": null, "Y": 1513424.828, "URL": null }, "geometry": { "type": "Point", "coordinates": [ 100.444580989739023, 13.685628240527427 ] } },
{ "type": "Feature", "properties": { "POLICE_ID": 86, "NAME": "สถานีตำรวจนครบาลบางบอน", "ADDRESS": null, "TEL": "0 2892 4271 - 5", "FAX": "0 2892 4279", "DCODE": 1050, "X": null, "Y": 1508390.108, "URL": null }, "geometry": { "type": "Point", "coordinates": [ 100.370531242986317, 13.640535649312664 ] } },
{ "type": "Feature", "properties": { "POLICE_ID": 83, "NAME": "สถานีตำรวจนครบาลหลักสอง", "ADDRESS": null, "TEL": "0 2421 7922 - 7", "FAX": "0 2421 1086", "DCODE": 1040, "X": null, "Y": 1516269.464, "URL": null }, "geometry": { "type": "Point", "coordinates": [ 100.382216915306174, 13.711699349526617 ] } },
{ "type": "Feature", "properties": { "POLICE_ID": 81, "NAME": "สถานีตำรวจนครบาลเพชรเกษม", "ADDRESS": null, "TEL": "0 2455 1718 - 9, 0 2455 1791", "FAX": " ", "DCODE": 1040, "X": null, "Y": 1514514.063, "URL": null }, "geometry": { "type": "Point", "coordinates": [ 100.392383530783931, 13.695773765400851 ] } },
{ "type": "Feature", "properties": { "POLICE_ID": 82, "NAME": "สถานีตำรวจนครบาลหนองแขม", "ADDRESS": null, "TEL": "0 2429 3568 - 72", "FAX": " ", "DCODE": 1023, "X": null, "Y": 1512383.688, "URL": null }, "geometry": { "type": "Point", "coordinates": [ 100.345334385421481, 13.676775445042884 ] } },
{ "type": "Feature", "properties": { "POLICE_ID": 66, "NAME": "สถานีตำรวจนครบาลศาลาแดง", "ADDRESS": null, "TEL": "0 2421 7929 - 31, 0 2421 1951", "FAX": "0 2421 1951", "DCODE": 1040, "X": null, "Y": 1520663.464, "URL": null }, "geometry": { "type": "Point", "coordinates": [ 100.353074504786903, 13.751582099070514 ] } },
{ "type": "Feature", "properties": { "POLICE_ID": 84, "NAME": "สถานีตำรวจนครบาลหนองค้างพลู", "ADDRESS": null, "TEL": "0 2421 5879 - 84", "FAX": " ", "DCODE": 1023, "X": null, "Y": 1516430.964, "URL": null }, "geometry": { "type": "Point", "coordinates": [ 100.351667282358264, 13.71332824298398 ] } },
{ "type": "Feature", "properties": { "POLICE_ID": 29, "NAME": "สถานีตำรวจนครบาลลำหิน", "ADDRESS": null, "TEL": "0 2988 6622, 0 2988 6633, 0 2988 6054, 0 2988 6688", "FAX": "0 2988 6611", "DCODE": 1003, "X": null, "Y": 1536755.721, "URL": null }, "geometry": { "type": "Point", "coordinates": [ 100.824546695186982, 13.893986130780721 ] } },
{ "type": "Feature", "properties": { "POLICE_ID": 21, "NAME": "สถานีตำรวจนครบาลหนองจอก", "ADDRESS": null, "TEL": "0 2543 1155 - 7, 0 2543 1084 - 5", "FAX": "0 2543 1846", "DCODE": 1003, "X": null, "Y": 1532669.595, "URL": null }, "geometry": { "type": "Point", "coordinates": [ 100.868147552883741, 13.856726803201747 ] } },
{ "type": "Feature", "properties": { "POLICE_ID": 20, "NAME": "สถานีตำรวจนครบาลดอนเมือง", "ADDRESS": null, "TEL": "0 2566 1381 - 2, 0 2566 1938, 0 2566 1940", "FAX": "0 2566 1491", "DCODE": 1036, "X": null, "Y": 1541073.405, "URL": null }, "geometry": { "type": "Point", "coordinates": [ 100.605322817545471, 13.934553032784338 ] } },
{ "type": "Feature", "properties": { "POLICE_ID": 19, "NAME": "สถานีตำรวจนครบาลทุ่งสองห้อง", "ADDRESS": null, "TEL": "0 2574 6464", "FAX": "0 2576 1940", "DCODE": 1041, "X": null, "Y": 1535671.976, "URL": null }, "geometry": { "type": "Point", "coordinates": [ 100.576213566215586, 13.885919568398066 ] } },
{ "type": "Feature", "properties": { "POLICE_ID": 57, "NAME": "สถานีตำรวจนครบาลบางพลัด", "ADDRESS": null, "TEL": "0 2424 1108, 0 2424 9239, 0 2424 3286", "FAX": "0 2435 1758", "DCODE": 1025, "X": null, "Y": 1525512.734, "URL": null }, "geometry": { "type": "Point", "coordinates": [ 100.490507234896967, 13.794624150163399 ] } },
{ "type": "Feature", "properties": { "POLICE_ID": 23, "NAME": "สถานีตำรวจนครบาลลาดกระบัง", "ADDRESS": null, "TEL": "0 2326 8390 - 2", "FAX": "0 2326 8107", "DCODE": 1011, "X": null, "Y": 1517622.213, "URL": null }, "geometry": { "type": "Point", "coordinates": [ 100.763505961697817, 13.7214998931306 ] } },
{ "type": "Feature", "properties": { "POLICE_ID": 40, "NAME": "สถานีตำรวจนครบาลบางนา", "ADDRESS": null, "TEL": "0 2396 1656 - 8, 0 2393 7151, 0 2396 0736, 0 2393 8219, 0 2393 9765", "FAX": " ", "DCODE": 1032, "X": null, "Y": 1512197.308, "URL": null }, "geometry": { "type": "Point", "coordinates": [ 100.644755947341721, 13.673284095908235 ] } },
{ "type": "Feature", "properties": { "POLICE_ID": 41, "NAME": "สถานีตำรวจนครบาลพระโขนง", "ADDRESS": null, "TEL": "0 2332 2361 - 5", "FAX": "0 2331 8400", "DCODE": 1039, "X": null, "Y": 1516101.788, "URL": null }, "geometry": { "type": "Point", "coordinates": [ 100.599680046111203, 13.708872062727874 ] } },
{ "type": "Feature", "properties": { "POLICE_ID": 39, "NAME": "สถานีตำรวจนครบาลอุดมสุข", "ADDRESS": null, "TEL": "0 2337 5544 - 46", "FAX": "0 2337 5547", "DCODE": 1032, "X": null, "Y": 1512508.796, "URL": null }, "geometry": { "type": "Point", "coordinates": [ 100.683899313452926, 13.67583666070961 ] } },
{ "type": "Feature", "properties": { "POLICE_ID": 65, "NAME": "สถานีตำรวจนครบาลธรรมศาลา", "ADDRESS": null, "TEL": "0 2441 3546", "FAX": "0 2441 3576", "DCODE": 1048, "X": null, "Y": 1523321.438, "URL": null }, "geometry": { "type": "Point", "coordinates": [ 100.364478009085659, 13.775547020230965 ] } },
{ "type": "Feature", "properties": { "POLICE_ID": 16, "NAME": "สถานีตำรวจนครบาลคันนายาว", "ADDRESS": null, "TEL": "0 2510 3619 - 22, 0-2510-3621", "FAX": "0 2510 9791", "DCODE": 1043, "X": null, "Y": 1532130.701, "URL": null }, "geometry": { "type": "Point", "coordinates": [ 100.670391539498922, 13.853285407897708 ] } },
{ "type": "Feature", "properties": { "POLICE_ID": 28, "NAME": "สถานีตำรวจนครบาลมีนบุรี", "ADDRESS": null, "TEL": "0 2569 1930, 0 2993 1502, 0 2569 1830 - 1", "FAX": "0 2569 1931", "DCODE": 1010, "X": null, "Y": 1537983.574, "URL": null }, "geometry": { "type": "Point", "coordinates": [ 100.748427336637278, 13.905640812129089 ] } },
{ "type": "Feature", "properties": { "POLICE_ID": 35, "NAME": "สถานีตำรวจนครบาลโชคชัย", "ADDRESS": null, "TEL": "0 2538 1599, 0 2538 3897", "FAX": "0 2538 7154", "DCODE": 1045, "X": null, "Y": 1525663.654, "URL": null }, "geometry": { "type": "Point", "coordinates": [ 100.593369675298362, 13.795343077629266 ] } },
{ "type": "Feature", "properties": { "POLICE_ID": 87, "NAME": "สถานีตำรวจนครบาลท่าข้าม", "ADDRESS": null, "TEL": "0 2451 3245 - 6", "FAX": " ", "DCODE": 1021, "X": null, "Y": 1507657.323, "URL": null }, "geometry": { "type": "Point", "coordinates": [ 100.399965809212205, 13.633747220864532 ] } },
{ "type": "Feature", "properties": { "POLICE_ID": 48, "NAME": "สถานีตำรวจนครบาลท่าเรือ", "ADDRESS": null, "TEL": "02249 8888 90", "FAX": "0 2249 891", "DCODE": 1033, "X": null, "Y": 1516129.185, "URL": null }, "geometry": { "type": "Point", "coordinates": [ 100.580727984342502, 13.709241615778383 ] } },
{ "type": "Feature", "properties": { "POLICE_ID": 30, "NAME": "สถานีตำรวจนครบาลลำผักชี", "ADDRESS": null, "TEL": "0 2543 1086 - 7, 0 2543 1744", "FAX": "0 2988 0926", "DCODE": 1003, "X": null, "Y": 1527425.48, "URL": null }, "geometry": { "type": "Point", "coordinates": [ 100.845977153235225, 13.809499035391704 ] } },
{ "type": "Feature", "properties": { "POLICE_ID": 15, "NAME": "สถานีตำรวจนครบาลโคกคราม", "ADDRESS": null, "TEL": "0 2509 0666  0 2509 0377", "FAX": "0 2509 3777, 0 2509 0542", "DCODE": 1038, "X": null, "Y": 1529692.197, "URL": null }, "geometry": { "type": "Point", "coordinates": [ 100.643198661359577, 13.831428273129958 ] } },
{ "type": "Feature", "properties": { "POLICE_ID": 27, "NAME": "สถานีตำรวจนครบาลมีนบุรี", "ADDRESS": null, "TEL": "0 2540 7311 - 3", "FAX": "0 2540 7215", "DCODE": 1010, "X": null, "Y": 1528009.578, "URL": null }, "geometry": { "type": "Point", "coordinates": [ 100.734614994640097, 13.81559036060357 ] } },
{ "type": "Feature", "properties": { "POLICE_ID": 13, "NAME": "สถานีตำรวจนครเตาปูน", "ADDRESS": null, "TEL": "0 2587 0461 - 5, 0 2911 2901", "FAX": "0 2911 2905", "DCODE": 1029, "X": null, "Y": 1527746.82, "URL": null }, "geometry": { "type": "Point", "coordinates": [ 100.531384362450822, 13.814567372059349 ] } },
{ "type": "Feature", "properties": { "POLICE_ID": 9, "NAME": "สถานีตำรวจนครบาลบางโพ", "ADDRESS": null, "TEL": "0 2585 0638, 0 2585 7460", "FAX": "0 2586 0099", "DCODE": 1029, "X": null, "Y": 1527056.537, "URL": null }, "geometry": { "type": "Point", "coordinates": [ 100.518957596678476, 13.808404903150706 ] } },
{ "type": "Feature", "properties": { "POLICE_ID": 37, "NAME": "สถานีตำรวจนครบาลบางชัน", "ADDRESS": null, "TEL": "0 2517 1717, 0 2517 3717, 0 2518 0480 , 0 2518 1510 - 13", "FAX": "0 2906 0034", "DCODE": 1043, "X": null, "Y": 1526495.141, "URL": null }, "geometry": { "type": "Point", "coordinates": [ 100.686691822856048, 13.802235909186596 ] } },
{ "type": "Feature", "properties": { "POLICE_ID": 11, "NAME": "สถานีตำรวจนครบาลสุทธิสาร", "ADDRESS": null, "TEL": "0 2275 2151 - 5", "FAX": "0 2277 9119", "DCODE": 1026, "X": null, "Y": 1525216.101, "URL": null }, "geometry": { "type": "Point", "coordinates": [ 100.573963222227675, 13.791422638167822 ] } },
{ "type": "Feature", "properties": { "POLICE_ID": 10, "NAME": "สถานีตำรวจนครบาลบางซื่อ", "ADDRESS": null, "TEL": "0 2278 2130, 0 2278 4082, 0 2278 5297, 02279 1500", "FAX": "0 2278 5086, 0 2279 3746", "DCODE": 1014, "X": null, "Y": 1524698.207, "URL": null }, "geometry": { "type": "Point", "coordinates": [ 100.547608524658557, 13.786908595825468 ] } },
{ "type": "Feature", "properties": { "POLICE_ID": 36, "NAME": "สถานีตำรวจนครบาลบึงกุ่ม", "ADDRESS": null, "TEL": "0 2374 9700 - 4", "FAX": "0 2374 9706", "DCODE": 1027, "X": null, "Y": 1524027.146, "URL": null }, "geometry": { "type": "Point", "coordinates": [ 100.659613470543647, 13.780112697888599 ] } },
{ "type": "Feature", "properties": { "POLICE_ID": 7, "NAME": "สถานีตำรวจนครบาลสามเสน", "ADDRESS": null, "TEL": "0 2241 1664, 0 2241 1461, 0 2241 1257", "FAX": "0 2243 6072", "DCODE": 1002, "X": null, "Y": 1523975.574, "URL": null }, "geometry": { "type": "Point", "coordinates": [ 100.509717542621047, 13.780611982518266 ] } },
{ "type": "Feature", "properties": { "POLICE_ID": 64, "NAME": "สถานีตำรวจนครบาลตลิ่งชัน", "ADDRESS": null, "TEL": "0 2448 6360, 0 2448-6621", "FAX": "0 2448 6761", "DCODE": 1019, "X": null, "Y": 1523932.447, "URL": null }, "geometry": { "type": "Point", "coordinates": [ 100.446270925571397, 13.780603268449649 ] } },
{ "type": "Feature", "properties": { "POLICE_ID": 4, "NAME": "สถานีตำรวจนครบาลดินแดง", "ADDRESS": null, "TEL": "0 2277 0630", "FAX": " ", "DCODE": 1026, "X": null, "Y": 1523627.778, "URL": null }, "geometry": { "type": "Point", "coordinates": [ 100.570056385226636, 13.7770905652672 ] } },
{ "type": "Feature", "properties": { "POLICE_ID": 1, "NAME": "สถานีตำรวจนครบาลดุสิต", "ADDRESS": null, "TEL": "0 2241 5043 - 4", "FAX": "0 2241 2361", "DCODE": 1002, "X": null, "Y": 1523624.146, "URL": null }, "geometry": { "type": "Point", "coordinates": [ 100.520845621941433, 13.777366778432768 ] } },
{ "type": "Feature", "properties": { "POLICE_ID": 67, "NAME": "สถานีตำรวจนครบาลบวรมงคล", "ADDRESS": null, "TEL": "0 2883 5131 - 3, 0 24247725", "FAX": "0 2435 1756", "DCODE": 1025, "X": null, "Y": 1523266.387, "URL": null }, "geometry": { "type": "Point", "coordinates": [ 100.497446464551928, 13.774276344499036 ] } },
{ "type": "Feature", "properties": { "POLICE_ID": 5, "NAME": "สถานีตำรวจนครบาลดินแดง", "ADDRESS": null, "TEL": "0 2246 7706 - 9", "FAX": "0 2245 8997", "DCODE": 1026, "X": null, "Y": 1523034.137, "URL": null }, "geometry": { "type": "Point", "coordinates": [ 100.556966331295811, 13.771807701202471 ] } },
{ "type": "Feature", "properties": { "POLICE_ID": 34, "NAME": "สถานีตำรวจนครบาลวังทองหลาง", "ADDRESS": null, "TEL": "0 2539 0171", "FAX": "0 2539 0172", "DCODE": 1045, "X": null, "Y": 1522969.964, "URL": null }, "geometry": { "type": "Point", "coordinates": [ 100.619930077671711, 13.770821378946291 ] } },
{ "type": "Feature", "properties": { "POLICE_ID": 33, "NAME": "สถานีตำรวจนครบาลลาดพร้าว", "ADDRESS": null, "TEL": "0 2377 7243 - 5", "FAX": "0 2906 0034", "DCODE": 1006, "X": null, "Y": 1522709.12, "URL": null }, "geometry": { "type": "Point", "coordinates": [ 100.647371926421641, 13.768281557791592 ] } },
{ "type": "Feature", "properties": { "POLICE_ID": 58, "NAME": "สถานีตำรวจนครบาลบางยี่ขัน", "ADDRESS": null, "TEL": "0 2883 3502 - 9", "FAX": "0 2883 3802 - 9", "DCODE": 1025, "X": null, "Y": 1522291.237, "URL": null }, "geometry": { "type": "Point", "coordinates": [ 100.491581689651127, 13.765497151588951 ] } },
{ "type": "Feature", "properties": { "POLICE_ID": 24, "NAME": "สถานีตำรวจนครบาลร่มเกล้า", "ADDRESS": null, "TEL": "0 2557 1100 - 7", "FAX": "0 2557 1108", "DCODE": 1011, "X": null, "Y": 1522149.783, "URL": null }, "geometry": { "type": "Point", "coordinates": [ 100.734590869530621, 13.762627033844263 ] } },
{ "type": "Feature", "properties": { "POLICE_ID": 32, "NAME": "สถานีตำรวจนครบาลหัวหมาก", "ADDRESS": null, "TEL": "0 2314 0696 , 0 2314 3340 - 41, 0 2314 0030, 0 2314 0955", "FAX": "0 2282 3166", "DCODE": 1006, "X": null, "Y": 1521813.445, "URL": null }, "geometry": { "type": "Point", "coordinates": [ 100.627130967617035, 13.760320214451019 ] } },
{ "type": "Feature", "properties": { "POLICE_ID": 8, "NAME": "สถานีตำรวจนครบาลชนะสงคราม", "ADDRESS": null, "TEL": "0 2282 2323, 0 2281 8786, 0 2281 8574", "FAX": " ", "DCODE": 1001, "X": null, "Y": 1521683.937, "URL": null }, "geometry": { "type": "Point", "coordinates": [ 100.496043701155642, 13.759980447996757 ] } },
{ "type": "Feature", "properties": { "POLICE_ID": 60, "NAME": "สถานีตำรวจนครบาลบางกอกน้อย", "ADDRESS": null, "TEL": "0 2411 3035 - 8, 0 2864 4366 - 8", "FAX": "0 2418 0717", "DCODE": 1020, "X": null, "Y": 1521667.251, "URL": null }, "geometry": { "type": "Point", "coordinates": [ 100.471662502334439, 13.759976454264708 ] } }
]
}
